{
  "satellites": [
    {
      "name": "SAT-000",
      "tle_line1": "1 99999U 24001A   24335.50000000  .00000000  00000-0  00000+0 0  9993",
      "tle_line2": "2 99999  71.7354   0.0000 0190192   0.0000   0.0000 14.06518150    07",
      "semi_major_axis": 7249.448142616835,
      "eccentricity": 0.01901921469755733,
      "inclination": 71.7354062975177,
      "norad_id": "10000",
      "altitude_km": 936.6718582655094,
      "orbit_regime": "LEO"
    },
    {
      "name": "SAT-001",
      "tle_line1": "1 99999U 24001A   24335.50000000  .00000000  00000-0  00000+0 0  9993",
      "tle_line2": "2 99999  15.2875   0.0000 0032047   0.0000   0.0000 13.31727817    01",
      "semi_major_axis": 7518.390181036444,
      "eccentricity": 0.003204770944804487,
      "inclination": 15.287462992947859,
      "norad_id": "10001",
      "altitude_km": 1150.3239885164812,
      "orbit_regime": "LEO"
    },
    {
      "name": "SAT-002",
      "tle_line1": "1 99999U 24001A   24335.50000000  .00000000  00000-0  00000+0 0  9993",
      "tle_line2": "2 99999  58.9093   0.0000 0173369   0.0000   0.0000 15.24740979    08",
      "semi_major_axis": 6869.700334601839,
      "eccentricity": 0.01733690530092121,
      "inclination": 58.90927115083446,
      "norad_id": "10002",
      "altitude_km": 383.6651412098645,
      "orbit_regime": "LEO"
    },
    {
      "name": "SAT-003",
      "tle_line1": "1 99999U 24001A   24335.50000000  .00000000  00000-0  00000+0 0  9993",
      "tle_line2": "2 99999  95.0512   0.0000 0005096   0.0000   0.0000 12.97589300    03",
      "semi_major_axis": 7649.687093355255,
      "eccentricity": 0.0005096314364864687,
      "inclination": 95.05116551187544,
      "norad_id": "10003",
      "altitude_km": 1274.1108120330673,
      "orbit_regime": "LEO"
    },
    {
      "name": "SAT-004",
      "tle_line1": "1 99999U 24001A   24335.50000000  .00000000  00000-0  00000+0 0  9993",
      "tle_line2": "2 99999  17.8188   0.0000 0043255   0.0000   0.0000 12.60521132    02",
      "semi_major_axis": 7798.931168960506,
      "eccentricity": 0.0043255483024976955,
      "inclination": 17.81884678629586,
      "norad_id": "10004",
      "altitude_km": 1453.0902403326445,
      "orbit_regime": "LEO"
    },
    {
      "name": "SAT-005",
      "tle_line1": "1 99999U 24001A   24335.50000000  .00000000  00000-0  00000+0 0  9993",
      "tle_line2": "2 99999  51.4261   0.0000 0061544   0.0000   0.0000 14.76009551    04",
      "semi_major_axis": 7020.0854118241205,
      "eccentricity": 0.0061544206348948015,
      "inclination": 51.42613029995931,
      "norad_id": "10005",
      "altitude_km": 615.5776514296876,
      "orbit_regime": "LEO"
    },
    {
      "name": "SAT-006",
      "tle_line1": "1 99999U 24001A   24335.50000000  .00000000  00000-0  00000+0 0  9993",
      "tle_line2": "2 99999  59.9616   0.0000 0058954   0.0000   0.0000 13.86706083    06",
      "semi_major_axis": 7318.334022370539,
      "eccentricity": 0.0058954598899410345,
      "inclination": 59.96158368279319,
      "norad_id": "10006",
      "altitude_km": 981.4042465601497,
      "orbit_regime": "LEO"
    },
    {
      "name": "SAT-007",
      "tle_line1": "1 99999U 24001A   24335.50000000  .00000000  00000-0  00000+0 0  9993",
      "tle_line2": "2 99999  35.9035   0.0000 0059136   0.0000   0.0000 14.92785248    06",
      "semi_major_axis": 6967.39263278245,
      "eccentricity": 0.005913678505850842,
      "inclination": 35.90346064278179,
      "norad_id": "10007",
      "altitude_km": 632.688942116225,
      "orbit_regime": "LEO"
    },
    {
      "name": "SAT-008",
      "tle_line1": "1 99999U 24001A   24335.50000000  .00000000  00000-0  00000+0 0  9993",
      "tle_line2": "2 99999  19.5680   0.0000 0157250   0.0000   0.0000 13.78518259    05",
      "semi_major_axis": 7347.283981060443,
      "eccentricity": 0.01572500163172097,
      "inclination": 19.568030651519255,
      "norad_id": "10008",
      "altitude_km": 1036.7143486935402,
      "orbit_regime": "LEO"
    },
    {
      "name": "SAT-009",
      "tle_line1": "1 99999U 24001A   24335.50000000  .00000000  00000-0  00000+0 0  9993",
      "tle_line2": "2 99999   4.5521   0.0000 0118890   0.0000   0.0000 13.59105596    05",
      "semi_major_axis": 7417.081326096334,
      "eccentricity": 0.011889049920354645,
      "inclination": 4.552140446559777,
      "norad_id": "10009",
      "altitude_km": 959.4927649952779,
      "orbit_regime": "LEO"
    },
    {
      "name": "SAT-010",
      "tle_line1": "1 99999U 24001A   24335.50000000  .00000000  00000-0  00000+0 0  9993",
      "tle_line2": "2 99999   6.3751   0.0000 0034934   0.0000   0.0000 13.28899565    08",
      "semi_major_axis": 7529.053822281726,
      "eccentricity": 0.0034934300613771014,
      "inclination": 6.375056112557393,
      "norad_id": "10010",
      "altitude_km": 1136.3374329415565,
      "orbit_regime": "LEO"
    },
    {
      "name": "SAT-011",
      "tle_line1": "1 99999U 24001A   24335.50000000  .00000000  00000-0  00000+0 0  9993",
      "tle_line2": "2 99999  79.2229   0.0000 0193160   0.0000   0.0000 12.27387629    05",
      "semi_major_axis": 7938.662644704,
      "eccentricity": 0.01931607745818373,
      "inclination": 79.2229401154132,
      "norad_id": "10011",
      "altitude_km": 1710.665527030158,
      "orbit_regime": "LEO"
    },
    {
      "name": "SAT-012",
      "tle_line1": "1 99999U 24001A   24335.50000000  .00000000  00000-0  00000+0 0  9993",
      "tle_line2": "2 99999  67.0548   0.0000 0020436   0.0000   0.0000 14.31296769    00",
      "semi_major_axis": 7165.536523008045,
      "eccentricity": 0.0020436750687270393,
      "inclination": 67.05483659819137,
      "norad_id": "10012",
      "altitude_km": 813.283308124669,
      "orbit_regime": "LEO"
    },
    {
      "name": "SAT-013",
      "tle_line1": "1 99999U 24001A   24335.50000000  .00000000  00000-0  00000+0 0  9993",
      "tle_line2": "2 99999  48.5273   0.0000 0025285   0.0000   0.0000 13.83911453    06",
      "semi_major_axis": 7328.182992487522,
      "eccentricity": 0.0025285608734110987,
      "inclination": 48.527337190904476,
      "norad_id": "10013",
      "altitude_km": 951.8823675032472,
      "orbit_regime": "LEO"
    },
    {
      "name": "SAT-014",
      "tle_line1": "1 99999U 24001A   24335.50000000  .00000000  00000-0  00000+0 0  9993",
      "tle_line2": "2 99999  25.3604   0.0000 0181954   0.0000   0.0000 15.34256689    04",
      "semi_major_axis": 6841.266225338262,
      "eccentricity": 0.018195476001367762,
      "inclination": 25.36043819680166,
      "norad_id": "10014",
      "altitude_km": 347.65763755423086,
      "orbit_regime": "LEO"
    },
    {
      "name": "SAT-015",
      "tle_line1": "1 99999U 24001A   24335.50000000  .00000000  00000-0  00000+0 0  9993",
      "tle_line2": "2 99999  50.9667   0.0000 0063030   0.0000   0.0000 13.11622328    01",
      "semi_major_axis": 7595.026741224779,
      "eccentricity": 0.006303050414179279,
      "inclination": 50.96666607542546,
      "norad_id": "10015",
      "altitude_km": 1248.6668206106142,
      "orbit_regime": "LEO"
    },
    {
      "name": "SAT-016",
      "tle_line1": "1 99999U 24001A   24335.50000000  .00000000  00000-0  00000+0 0  9993",
      "tle_line2": "2 99999  95.0193   0.0000 0037786   0.0000   0.0000 13.48463950    08",
      "semi_major_axis": 7456.052335211935,
      "eccentricity": 0.003778603664957988,
      "inclination": 95.01929352092674,
      "norad_id": "10016",
      "altitude_km": 1076.5812105616988,
      "orbit_regime": "LEO"
    },
    {
      "name": "SAT-017",
      "tle_line1": "1 99999U 24001A   24335.50000000  .00000000  00000-0  00000+0 0  9993",
      "tle_line2": "2 99999  87.6931   0.0000 0187960   0.0000   0.0000 12.77379932    02",
      "semi_major_axis": 7730.159388033338,
      "eccentricity": 0.018796028937127365,
      "inclination": 87.69308034190958,
      "norad_id": "10017",
      "altitude_km": 1492.923126598792,
      "orbit_regime": "LEO"
    },
    {
      "name": "SAT-018",
      "tle_line1": "1 99999U 24001A   24335.50000000  .00000000  00000-0  00000+0 0  9993",
      "tle_line2": "2 99999   8.6723   0.0000 0184452   0.0000   0.0000 13.31969690    04",
      "semi_major_axis": 7517.479974573302,
      "eccentricity": 0.018445297276960024,
      "inclination": 8.672265201088111,
      "norad_id": "10018",
      "altitude_km": 1072.3924699713052,
      "orbit_regime": "LEO"
    },
    {
      "name": "SAT-019",
      "tle_line1": "1 99999U 24001A   24335.50000000  .00000000  00000-0  00000+0 0  9993",
      "tle_line2": "2 99999  31.8824   0.0000 0010000   0.0000   0.0000 14.71261918    04",
      "semi_major_axis": 7035.179434902974,
      "eccentricity": 0.0010000230493197074,
      "inclination": 31.882372414799907,
      "norad_id": "10019",
      "altitude_km": 671.2563822089633,
      "orbit_regime": "LEO"
    },
    {
      "name": "SAT-020",
      "tle_line1": "1 99999U 24001A   24335.50000000  .00000000  00000-0  00000+0 0  9993",
      "tle_line2": "2 99999  81.2163   0.0000 0054998   0.0000   0.0000 14.01595413    06",
      "semi_major_axis": 7266.412747627379,
      "eccentricity": 0.005499845732300529,
      "inclination": 81.21627589688907,
      "norad_id": "10020",
      "altitude_km": 879.9005952332582,
      "orbit_regime": "LEO"
    },
    {
      "name": "SAT-021",
      "tle_line1": "1 99999U 24001A   24335.50000000  .00000000  00000-0  00000+0 0  9993",
      "tle_line2": "2 99999  53.1842   0.0000 0056905   0.0000   0.0000 14.12752790    03",
      "semi_major_axis": 7228.103992032307,
      "eccentricity": 0.0056905967427788775,
      "inclination": 53.18421614950835,
      "norad_id": "10021",
      "altitude_km": 858.4372791789583,
      "orbit_regime": "LEO"
    }
  ]
}